OBJECT_NAME,OBJECT_ID,EPOCH,MEAN_MOTION,ECCENTRICITY,INCLINATION,RA_OF_ASC_NODE,ARG_OF_PERICENTER,MEAN_ANOMALY,EPHEMERIS_TYPE,CLASSIFICATION_TYPE,NORAD_CAT_ID,ELEMENT_SET_NO,REV_AT_EPOCH,BSTAR,MEAN_MOTION_DOT,MEAN_MOTION_DDOT
GPS BIIR-4  (PRN 20),2000-025A,2024-03-31T21:19:12.751392,2.00554187,.0038432,54.6079,52.0323,213.9979,154.7709,0,U,26360,999,17507,0,-.24E-6,0
GPS BIIR-9  (PRN 21),2003-010A,2024-03-31T14:26:11.637312,2.00559942,.0253927,55.1076,356.9228,325.1992,31.7531,0,U,27704,999,15390,0,-.79E-6,0
GPS BIIR-11 (PRN 19),2004-009A,2024-03-30T15:18:44.373312,2.00561241,.0095157,55.5202,308.1720,144.4538,177.8723,0,U,28190,999,14675,0,-.16E-6,0
GPS BIIR-13 (PRN 02),2004-045A,2024-03-31T14:57:59.372640,2.00560005,.0163139,55.4357,357.3146,290.2608,69.1040,0,U,28474,999,14222,0,-.79E-6,0
GPS BIIRM-1 (PRN 17),2005-038A,2024-03-31T09:49:34.137696,2.00560874,.0136678,55.5670,305.6000,283.7805,260.1725,0,U,28874,999,13563,0,-.8E-7,0
GPS BIIRM-3 (PRN 12),2006-052A,2024-03-30T17:22:41.359584,2.00562658,.0087083,55.1709,246.0879,81.7762,279.1824,0,U,29601,999,12719,0,.44E-6,0
GPS BIIRM-4 (PRN 15),2007-047A,2024-03-31T12:36:26.498016,2.00568437,.015247,53.5654,113.4657,74.1556,287.5750,0,U,32260,999,12061,0,.44E-6,0
GPS BIIRM-5 (PRN 29),2007-062A,2024-03-31T02:11:28.692384,2.00570166,.0026207,55.7047,306.4645,147.0161,26.7803,0,U,32384,999,11930,0,-.1E-6,0
GPS BIIRM-6 (PRN 07),2008-012A,2024-03-29T22:46:41.421792,2.00565621,.0184278,54.4480,182.2088,237.8654,120.3765,0,U,32711,999,11752,0,.25E-6,0
GPS BIIRM-8 (PRN 05),2009-043A,2024-03-30T17:18:30.284640,2.00574046,.0055037,55.6113,59.4031,69.7618,142.9270,0,U,35752,999,10714,0,-.12E-6,0
GPS BIIF-1  (PRN 25),2010-022A,2024-03-30T22:23:28.068000,2.00572734,.0116111,54.4773,241.1581,61.6129,66.4172,0,U,36585,999,10138,0,.42E-6,0
GPS BIIF-4  (PRN 27),2013-023A,2024-03-31T11:35:46.578336,2.00563207,.0123704,55.1800,301.7094,43.7587,317.2479,0,U,39166,999,7968,0,-.1E-7,0
GPS BIIF-5  (PRN 30),2014-008A,2024-03-30T11:43:58.265184,2.00563692,.0071109,53.5967,182.2715,218.1222,141.4148,0,U,39533,999,7346,0,.21E-6,0
GPS BIIF-6  (PRN 06),2014-026A,2024-03-30T06:25:46.654176,2.00574031,.003266,56.7108,2.9268,315.5974,44.1712,0,U,39741,999,7231,0,-.79E-6,0
GPS BIIF-7  (PRN 09),2014-045A,2024-03-31T08:33:14.890176,2.00560772,.0024744,54.8954,120.7169,117.2709,243.0434,0,U,40105,999,6987,0,.46E-6,0
GPS BIIF-8  (PRN 03),2014-068A,2024-03-30T05:28:49.021824,2.00554628,.0050522,56.3570,62.3206,59.6627,300.8253,0,U,40294,999,6898,0,-.8E-7,0
GPS BIIF-10 (PRN 08),2015-033A,2024-03-30T00:40:35.290272,2.00571133,.0093717,54.6659,300.2805,18.4253,341.9418,0,U,40730,999,6376,0,-.8E-7,0
GPS BIIF-11 (PRN 10),2015-062A,2024-03-30T13:58:38.718048,2.00562367,.0094815,56.3388,62.1595,225.3921,133.8231,0,U,41019,999,6161,0,-.6E-7,0
GPS BIII-1  (PRN 04),2018-109A,2024-03-31T13:08:28.824576,2.00552409,.0028554,55.2651,124.0952,195.3954,336.7587,0,U,43873,999,3887,0,.47E-6,0
GPS BIII-3  (PRN 23),2020-041A,2024-03-31T14:42:53.301024,2.00559604,.0040907,56.0610,60.4751,193.9479,221.4008,0,U,45854,999,2784,0,-.5E-7,0
GPS BIII-5  (PRN 11),2021-054A,2024-03-31T19:43:34.371840,2.00562578,.0013716,55.3631,4.8337,224.1028,144.9406,0,U,48859,999,2055,0,-.8E-6,0
GPS BIII-6  (PRN 28),2023-009A,2024-03-29T07:28:23.285568,2.00569599,.0002957,55.0836,180.2981,108.0908,288.3669,0,U,55268,999,900,0,.28E-6,0
