26360,NAVSTAR 47 (USA 150),2000,718.01,2217.0,+,54.61,Active,1,MEO,USA,USA,Commercial/Military,Navigation (Global or Regional Positioning),Delta,1 26360U 00025A   24091.88834203 -.00000024  00000+0  00000+0 0  9991,2 26360  54.6079  52.0323 0038432 213.9979 154.7709  2.00554187175081,2.00554187,0.0038432,MEO
27704,NAVSTAR 52 (USA 168),2003,717.99,2217.0,+,55.11,Active,1,MEO,USA,USA,Commercial/Military,Navigation (Global or Regional Positioning),Delta,1 27704U 03010A   24091.60152358 -.00000079  00000+0  00000+0 0  9995,2 27704  55.1076 356.9228 0253927 325.1992  31.7531  2.00559942153904,2.00559942,0.0253927,MEO
28190,NAVSTAR 54 (USA 177),2004,717.99,2217.0,+,55.52,Active,1,MEO,USA,USA,Commercial/Military,Navigation (Global or Regional Positioning),Delta,1 28190U 04009A   24090.63801358 -.00000016  00000+0  00000+0 0  9998,2 28190  55.5202 308.1720 0095157 144.4538 177.8723  2.00561241146757,2.00561241,0.0095157,MEO
28474,NAVSTAR 56 (USA 180),2004,717.99,2217.0,+,55.44,Active,1,MEO,USA,USA,Commercial/Military,Navigation (Global or Regional Positioning),Delta,1 28474U 04045A   24091.62360385 -.00000079  00000+0  00000+0 0  9992,2 28474  55.4357 357.3146 0163139 290.2608  69.1040  2.00560005142224,2.00560005,0.0163139,MEO
28874,NAVSTAR 57 (USA 183),2005,717.99,2217.0,+,55.57,Active,1,MEO,USA,USA,Commercial/Military,Navigation (Global or Regional Positioning),Delta,1 28874U 05038A   24091.40942289 -.00000008  00000+0  00000+0 0  9996,2 28874  55.5670 305.6000 0136678 283.7805 260.1725  2.00560874135630,2.00560874,0.0136678,MEO
29601,NAVSTAR 59 (USA 192),2006,717.98,2060.0,+,55.17,Active,1,MEO,USA,USA,Commercial/Military,Navigation (Global or Regional Positioning),Delta,1 29601U 06052A   24090.72408981  .00000044  00000+0  00000+0 0  9991,2 29601  55.1709 246.0879 0087083  81.7762 279.1824  2.00562658127197,2.00562658,0.0087083,MEO
32260,NAVSTAR 60 (USA 196),2007,717.96,2217.0,+,53.56,Active,1,MEO,USA,USA,Commercial/Military,Navigation (Global or Regional Positioning),Delta,1 32260U 07047A   24091.52530669  .00000044  00000+0  00000+0 0  9999,2 32260  53.5654 113.4657 0152470  74.1556 287.5750  2.00568437120616,2.00568437,0.015247,MEO
32384,NAVSTAR 61 (USA 199),2007,717.95,2060.0,+,55.71,Active,1,MEO,USA,USA,Commercial/Military,Navigation (Global or Regional Positioning),Delta,1 32384U 07062A   24091.09130431 -.00000010  00000+0  00000+0 0  9992,2 32384  55.7047 306.4645 0026207 147.0161  26.7803  2.00570166119302,2.00570166,0.0026207,MEO
32711,NAVSTAR 62 (USA 201),2008,717.97,2217.0,+,54.45,Active,1,MEO,USA,USA,Commercial/Military,Navigation (Global or Regional Positioning),Delta,1 32711U 08012A   24089.94909053  .00000025  00000+0  00000+0 0  9992,2 32711  54.4480 182.2088 0184278 237.8654 120.3765  2.00565621117522,2.00565621,0.0184278,MEO
35752,NAVSTAR 64 (USA 206),2009,717.94,2059.0,+,55.61,Active,1,MEO,USA,USA,Commercial/Military,Navigation (Global or Regional Positioning),Delta,1 35752U 09043A   24090.72118385 -.00000012  00000+0  00000+0 0  9990,2 35752  55.6113  59.4031 0055037  69.7618 142.9270  2.00574046107140,2.00574046,0.0055037,MEO
36585,NAVSTAR 65 (USA 213),2010,717.94,1630.0,+,54.48,Active,1,MEO,USA,USA,Commercial/Military,Navigation (Global or Regional Positioning),Delta,1 36585U 10022A   24090.93296375  .00000042  00000+0  00000+0 0  9995,2 36585  54.4773 241.1581 0116111  61.6129  66.4172  2.00572734101386,2.00572734,0.0116111,MEO
39166,NAVSTAR 68 (USA 242),2013,717.98,1630.0,+,55.18,Active,1,MEO,USA,USA,Commercial/Military,Navigation (Global or Regional Positioning),Atlas,1 39166U 13023A   24091.48317799 -.00000001  00000+0  00000+0 0  9998,2 39166  55.1800 301.7094 0123704  43.7587 317.2479  2.00563207 79689,2.00563207,0.0123704,MEO
39533,NAVSTAR 69 (USA 248),2014,717.98,1630.0,+,53.6,Active,1,MEO,USA,USA,Commercial/Military,Navigation (Global or Regional Positioning),Delta,1 39533U 14008A   24090.48886881  .00000021  00000+0  00000+0 0  9993,2 39533  53.5967 182.2715 0071109 218.1222 141.4148  2.00563692 73468,2.00563692,0.0071109,MEO
39741,NAVSTAR 70 (USA 251),2014,717.94,1630.0,+,56.71,Active,1,MEO,USA,USA,Commercial/Military,Navigation (Global or Regional Positioning),Delta,1 39741U 14026A   24090.26790109 -.00000079  00000+0  00000+0 0  9991,2 39741  56.7108   2.9268 0032660 315.5974  44.1712  2.00574031 72315,2.00574031,0.003266,MEO
40105,NAVSTAR 71 (USA 256),2014,717.99,1630.0,+,54.89,Active,1,MEO,USA,USA,Commercial/Military,Navigation (Global or Regional Positioning),Atlas,1 40105U 14045A   24091.35642234  .00000046  00000+0  00000+0 0  9997,2 40105  54.8954 120.7169 0024744 117.2709 243.0434  2.00560772 69870,2.00560772,0.0024744,MEO
40294,NAVSTAR 72 (USA 258),2014,718.01,1630.0,+,56.36,Active,1,MEO,USA,USA,Commercial/Military,Navigation (Global or Regional Positioning),Atlas,1 40294U 14068A   24090.22834516 -.00000008  00000+0  00000+0 0  9991,2 40294  56.3570  62.3206 0050522  59.6627 300.8253  2.00554628 68989,2.00554628,0.0050522,MEO
40730,NAVSTAR 74 (USA 262),2015,717.95,1630.0,+,54.67,Active,1,MEO,USA,USA,Commercial/Military,Navigation (Global or Regional Positioning),Atlas,1 40730U 15033A   24090.02818623 -.00000008  00000+0  00000+0 0  9998,2 40730  54.6659 300.2805 0093717  18.4253 341.9418  2.00571133 63763,2.00571133,0.0093717,MEO
41019,NAVSTAR 75 (USA 265),2015,717.98,1630.0,+,56.34,Active,1,MEO,USA,USA,Commercial/Military,Navigation (Global or Regional Positioning),Atlas,1 41019U 15062A   24090.58239257 -.00000006  00000+0  00000+0 0  9990,2 41019  56.3388  62.1595 0094815 225.3921 133.8231  2.00562367 61615,2.00562367,0.0094815,MEO
43873,NAVSTAR 77 (USA 289),2018,718.02,2300.0,+,55.26,Active,1,MEO,USA,USA,Commercial/Military,Navigation (Global or Regional Positioning),Falcon,1 43873U 18109A   24091.54755584  .00000047  00000+0  00000+0 0  9992,2 43873  55.2651 124.0952 0028554 195.3954 336.7587  2.00552409 38876,2.00552409,0.0028554,MEO
45854,NAVSTAR 79 (USA 304),2020,717.99,2300.0,+,56.06,Active,1,MEO,USA,USA,Commercial/Military,Navigation (Global or Regional Positioning),Falcon,1 45854U 20041A   24091.61311691 -.00000005  00000+0  00000+0 0  9991,2 45854  56.0610  60.4751 0040907 193.9479 221.4008  2.00559604 27840,2.00559604,0.0040907,MEO
48859,NAVSTAR 81 (USA 319),2021,717.98,2300.0,+,55.36,Active,1,MEO,USA,USA,Commercial/Military,Navigation (Global or Regional Positioning),Falcon,1 48859U 21054A   24091.82192560 -.00000080  00000+0  00000+0 0  9992,2 48859  55.3631   4.8337 0013716 224.1028 144.9406  2.00562578 20567,2.00562578,0.0013716,MEO
55268,NAVSTAR 82 (USA 343),2023,717.96,4352.0,+,55.08,Active,1,MEO,USA,USA,Commercial/Military,Navigation (Global or Regional Positioning),Falcon,1 55268U 23009A   24089.31138062  .00000028  00000+0  00000+0 0  9995,2 55268  55.0836 180.2981 0002957 108.0908 288.3669  2.00569599  9009,2.00569599,0.0002957,MEO
